[{"OBJECT_NAME":"STARLINK-35389","OBJECT_ID":"2025-259N","EPOCH":"2026-03-09T22:40:12.194976","MEAN_MOTION":15.27589011,"ECCENTRICITY":0.00012827,"INCLINATION":43.0018,"RA_OF_ASC_NODE":272.6129,"ARG_OF_PERICENTER":244.3202,"MEAN_ANOMALY":115.7517,"EPHEMERIS_TYPE":0,"CLASSIFICATION_TYPE":"U","NORAD_CAT_ID":66434,"ELEMENT_SET_NO":999,"REV_AT_EPOCH":1953,"BSTAR":0.00091652927,"MEAN_MOTION_DOT":0.00025051,"MEAN_MOTION_DDOT":0},{"OBJECT_NAME":"FENGYUN 1C DEB","OBJECT_ID":"1999-025AJJ","EPOCH":"2026-03-09T18:40:58.380672","MEAN_MOTION":15.18672988,"ECCENTRICITY":0.00638575,"INCLINATION":98.7226,"RA_OF_ASC_NODE":259.4919,"ARG_OF_PERICENTER":168.3626,"MEAN_ANOMALY":191.9098,"EPHEMERIS_TYPE":0,"CLASSIFICATION_TYPE":"U","NORAD_CAT_ID":30520,"ELEMENT_SET_NO":999,"REV_AT_EPOCH":2360,"BSTAR":0.0014000942,"MEAN_MOTION_DOT":0.0003064,"MEAN_MOTION_DDOT":0}]
